FENGYUN 1C DEB          
1 31198U 99025BKC 17345.79393409  .00000003  00000-0  37821-4 0  9999
2 31198  98.5173 343.3471 0204451 281.9355  75.8942 13.74850893225834
